
# Worst residual: 9.60 km
# MJD 59754.000000 (2022 Jun 24  0:00)
1969-046D = NORAD 03954 = Vela 5a
1 03954U 69046D   22175.49919926  .00000000  00000-0  00000-0 0 17610
2 03954 063.4088 074.1203 8306185 138.1504 132.0993 00.21501014    03

# Worst residual: 4.31 km
# MJD 59755.000000 (2022 Jun 25  0:00)
1969-046D = NORAD 03954 = Vela 5a
1 03954U 69046D   22176.49919926  .00000000  00000-0  00000-0 0 17611
2 03954 063.4305 074.0982 8306338 138.0983 209.8090 00.21510702    03

# Worst residual: 14.35 km
# MJD 59756.000000 (2022 Jun 26  0:00)
1969-046D = NORAD 03954 = Vela 5a
1 03954U 69046D   22177.49919926  .00000000  00000-0  00000-0 0 17612
2 03954 063.5142 074.0171 8302993 138.1179 287.2727 00.21518482    04

# Worst residual: 25.44 km
# MJD 59757.000000 (2022 Jun 27  0:00)
1969-046D = NORAD 03954 = Vela 5a
1 03954U 69046D   22178.49919926  .00000000  00000-0  00000-0 0 17613
2 03954 063.6153 073.9390 8291348 138.0513 004.7326 00.21540417    00

# Worst residual: 6.32 km
# MJD 59758.000000 (2022 Jun 28  0:00)
1969-046D = NORAD 03954 = Vela 5a
1 03954U 69046D   22179.49919926  .00000000  00000-0  00000-0 0 17614
2 03954 063.6728 073.8830 8292355 138.0814 082.1054 00.21476387    01

# Worst residual: 8.82 km
# MJD 59759.000000 (2022 Jun 29  0:00)
1969-046D = NORAD 03954 = Vela 5a
1 03954U 69046D   22180.49919926  .00000000  00000-0  00000-0 0 17616
2 03954 063.7261 073.8318 8296743 138.0255 159.6803 00.21503491    08

# Worst residual: 4.09 km
# MJD 59760.000000 (2022 Jun 30  0:00)
1969-046D = NORAD 03954 = Vela 5a
1 03954U 69046D   22181.49919926  .00000000  00000-0  00000-0 0 17617
2 03954 063.7857 073.7669 8301592 138.0252 237.2609 00.21516551    01

# Worst residual: 25.46 km
# MJD 59761.000000 (2022 Jul  1  0:00)
1969-046D = NORAD 03954 = Vela 5a
1 03954U 69046D   22182.49919926  .00000000  00000-0  00000-0 0 17618
2 03954 063.8427 073.7021 8299909 138.0862 314.6718 00.21558056    09

# Worst residual: 32.55 km
# MJD 59762.000000 (2022 Jul  2  0:00)
1969-046D = NORAD 03954 = Vela 5a
1 03954U 69046D   22183.49919926  .00000000  00000-0  00000-0 0 17619
2 03954 063.9073 073.6282 8292942 138.0044 032.3323 00.21567869    05

# Worst residual: 5.77 km
# MJD 59763.000000 (2022 Jul  3  0:00)
1969-046D = NORAD 03954 = Vela 5a
1 03954U 69046D   22184.49919926  .00000000  00000-0  00000-0 0 17610
2 03954 063.9742 073.5477 8297352 138.0410 109.6279 00.21502546    09

# Worst residual: 3.45 km
# MJD 59764.000000 (2022 Jul  4  0:00)
1969-046D = NORAD 03954 = Vela 5a
1 03954U 69046D   22185.49919926  .00000000  00000-0  00000-0 0 17611
2 03954 064.0185 073.5010 8295301 138.0561 186.9894 00.21497274    06

# Worst residual: 5.86 km
# MJD 59765.000000 (2022 Jul  5  0:00)
1969-046D = NORAD 03954 = Vela 5a
1 03954U 69046D   22186.49919926  .00000000  00000-0  00000-0 0 17612
2 03954 064.0321 073.4707 8294186 138.0663 264.3785 00.21505695    00

# Worst residual: 19.37 km
# MJD 59766.000000 (2022 Jul  6  0:00)
1969-046D = NORAD 03954 = Vela 5a
1 03954U 69046D   22187.49919926  .00000000  00000-0  00000-0 0 17613
2 03954 064.1029 073.4058 8289848 138.0960 341.8080 00.21541138    05

# Worst residual: 5.57 km
# MJD 59767.000000 (2022 Jul  7  0:00)
1969-046D = NORAD 03954 = Vela 5a
1 03954U 69046D   22188.49919926  .00000000  00000-0  00000-0 0 17614
2 03954 064.1684 073.3145 8289022 138.1286 059.2928 00.21491411    03

# Worst residual: 3.68 km
# MJD 59768.000000 (2022 Jul  8  0:00)
1969-046D = NORAD 03954 = Vela 5a
1 03954U 69046D   22189.49919926  .00000000  00000-0  00000-0 0 17615
2 03954 064.2103 073.2784 8285735 138.1323 136.7022 00.21486231    07

# Worst residual: 8.55 km
# MJD 59769.000000 (2022 Jul  9  0:00)
1969-046D = NORAD 03954 = Vela 5a
1 03954U 69046D   22190.49919926  .00000000  00000-0  00000-0 0 17617
2 03954 064.2226 073.2640 8287292 138.1263 214.0621 00.21493783    02

# Worst residual: 20.12 km
# MJD 59770.000000 (2022 Jul 10  0:00)
1969-046D = NORAD 03954 = Vela 5a
1 03954U 69046D   22191.49919926  .00000000  00000-0  00000-0 0 17618
2 03954 064.2743 073.2052 8287763 138.2086 291.2773 00.21538266    01

# Worst residual: 35.34 km
# MJD 59771.000000 (2022 Jul 11  0:00)
1969-046D = NORAD 03954 = Vela 5a
1 03954U 69046D   22192.49919926  .00000000  00000-0  00000-0 0 17619
2 03954 064.3592 073.1415 8275301 138.1490 008.8158 00.21587609    03

# Worst residual: 3.19 km
# MJD 59772.000000 (2022 Jul 12  0:00)
1969-046D = NORAD 03954 = Vela 5a
1 03954U 69046D   22193.49919926  .00000000  00000-0  00000-0 0 17610
2 03954 064.4163 073.0852 8276942 138.1792 086.2946 00.21514594    07

# Worst residual: 2.94 km
# MJD 59773.000000 (2022 Jul 13  0:00)
1969-046D = NORAD 03954 = Vela 5a
1 03954U 69046D   22194.49919926  .00000000  00000-0  00000-0 0 17611
2 03954 064.4661 073.0361 8271509 138.1851 163.8225 00.21510167    09

# Worst residual: 7.00 km
# MJD 59774.000000 (2022 Jul 14  0:00)
1969-046D = NORAD 03954 = Vela 5a
1 03954U 69046D   22195.49919926  .00000000  00000-0  00000-0 0 17612
2 03954 064.4888 073.0031 8264150 138.1774 241.2748 00.21503484    07

# Worst residual: 39.12 km
# MJD 59775.000000 (2022 Jul 15  0:00)
1969-046D = NORAD 03954 = Vela 5a
1 03954U 69046D   22196.49919926  .00000000  00000-0  00000-0 0 17613
2 03954 064.4962 072.9639 8255932 138.2153 318.5484 00.21554818    04

# Worst residual: 42.28 km
# MJD 59776.000000 (2022 Jul 16  0:00)
1969-046D = NORAD 03954 = Vela 5a
1 03954U 69046D   22197.49919926  .00000000  00000-0  00000-0 0 17614
2 03954 064.5536 072.8826 8248202 138.0981 036.2308 00.21584161    01

# Worst residual: 3.63 km
# MJD 59777.000000 (2022 Jul 17  0:00)
1969-046D = NORAD 03954 = Vela 5a
1 03954U 69046D   22198.49919926  .00000000  00000-0  00000-0 0 17615
2 03954 064.6380 072.7598 8253122 138.1543 113.5340 00.21513384    00

# Worst residual: 5.02 km
# MJD 59778.000000 (2022 Jul 18  0:00)
1969-046D = NORAD 03954 = Vela 5a
1 03954U 69046D   22199.49919926  .00000000  00000-0  00000-0 0 17616
2 03954 064.6786 072.7174 8248993 138.1410 191.1151 00.21512276    04

# Worst residual: 3.24 km
# MJD 59779.000000 (2022 Jul 19  0:00)
1969-046D = NORAD 03954 = Vela 5a
1 03954U 69046D   22200.49919926  .00000000  00000-0  00000-0 0 17619
2 03954 064.7128 072.6731 8249040 138.1285 268.7209 00.21512469    06

# Worst residual: 17.01 km
# MJD 59780.000000 (2022 Jul 20  0:00)
1969-046D = NORAD 03954 = Vela 5a
1 03954U 69046D   22201.49919926  .00000000  00000-0  00000-0 0 17610
2 03954 064.8220 072.5999 8245069 138.1343 346.2140 00.21526210    02

# Worst residual: 5.60 km
# MJD 59781.000000 (2022 Jul 21  0:00)
1969-046D = NORAD 03954 = Vela 5a
1 03954U 69046D   22202.49919926  .00000000  00000-0  00000-0 0 17611
2 03954 064.8833 072.5284 8243488 138.1648 063.6532 00.21480109    01

# Worst residual: 8.66 km
# MJD 59782.000000 (2022 Jul 22  0:00)
1969-046D = NORAD 03954 = Vela 5a
1 03954U 69046D   22203.49919926  .00000000  00000-0  00000-0 0 17612
2 03954 064.9074 072.5243 8241259 138.0968 141.2989 00.21507528    06
